NORAD_CAT_ID,OBJECT_NAME,OBJECT_TYPE,EPOCH,MEAN_MOTION,ECCENTRICITY,INCLINATION,RA_OF_ASC_NODE,ARG_OF_PERICENTER,MEAN_ANOMALY,BSTAR,MEAN_MOTION_DOT,MEAN_MOTION_DDOT,TLE_LINE0,TLE_LINE1,TLE_LINE2,SEMIMAJOR_AXIS,PERIOD,APOGEE,PERIGEE,DECAYED
56480.0,STARLINK-6214,PAYLOAD,2023-11-01 22:13:56,14.98322661,0.0002978,69.9981,129.7522,269.245,90.8368,8.8091e-05,9.58e-06,0.0,0 STARLINK-6214,1 56480U 23064AJ  23305.92635245  .00000958  00000-0  88091-4 0  9999,2 56480  69.9981 129.7522 0002978 269.2450  90.8368 14.98322661 27105,6950.216,96.107,574.15,570.011,0.0
56480.0,STARLINK-6214,PAYLOAD,2023-11-02 14:15:17,14.98328116,0.0002985,69.9983,128.0689,269.4277,90.654,9.0028e-05,9.81e-06,0.0,0 STARLINK-6214,1 56480U 23064AJ  23306.59395096  .00000981  00000-0  90028-4 0  9999,2 56480  69.9983 128.0689 0002985 269.4277  90.6540 14.98328116 27202,6950.199,96.107,574.138,569.989,0.0
56480.0,STARLINK-6214,PAYLOAD,2023-11-02 20:39:49,14.98330355,0.000298,69.9983,127.3955,269.3755,90.7062,9.0774e-05,9.9e-06,0.0,0 STARLINK-6214,1 56480U 23064AJ  23306.86098970  .00000990  00000-0  90774-4 0  9998,2 56480  69.9983 127.3955 0002980 269.3755  90.7062 14.98330355 27607,6950.192,96.107,574.128,569.986,0.0
56480.0,STARLINK-6214,PAYLOAD,2023-11-03 14:17:17,14.98336655,0.0002969,69.9984,125.5439,269.5436,90.5383,9.6727e-05,1.061e-05,0.0,0 STARLINK-6214,1 56480U 23064AJ  23307.59534412  .00001061  00000-0  96727-4 0  9999,2 56480  69.9984 125.5439 0002969 269.5436  90.5383 14.98336655 27355,6950.172,96.107,574.101,569.974,0.0
56480.0,STARLINK-6214,PAYLOAD,2023-11-03 20:41:49,14.98338848,0.000296,69.9985,124.8705,269.7325,90.3495,0.0001074,1.189e-05,0.0,0 STARLINK-6214,1 56480U 23064AJ  23307.86238112  .00001189  00000-0  10740-3 0  9998,2 56480  69.9985 124.8705 0002960 269.7325  90.3495 14.98338848 27756,6950.166,96.106,574.088,569.973,0.0
56480.0,STARLINK-6214,PAYLOAD,2023-11-03 22:17:57,14.98338912,0.0002961,69.9984,124.7022,269.7602,90.3218,0.00010592,1.171e-05,0.0,0 STARLINK-6214,1 56480U 23064AJ  23307.92914074  .00001171  00000-0  10592-3 0  9999,2 56480  69.9984 124.7022 0002961 269.7602  90.3218 14.98338912 27402,6950.165,96.106,574.088,569.972,0.0
56480.0,STARLINK-6214,PAYLOAD,2023-11-04 11:07:02,14.98335437,0.0002871,69.9987,123.3557,270.1933,89.8897,-8.8219e-06,-1.98e-06,0.0,0 STARLINK-6214,1 56480U 23064AJ  23308.46322395 -.00000198  00000-0 -88219-5 0  9991,2 56480  69.9987 123.3557 0002871 270.1933  89.8897 14.98335437 27849,6950.176,96.107,574.036,570.046,0.0
56480.0,STARLINK-6214,PAYLOAD,2023-11-04 14:19:18,14.98334944,0.0002882,69.9987,123.019,270.0469,90.0359,-1.3526e-05,-2.54e-06,0.0,0 STARLINK-6214,1 56480U 23064AJ  23308.59674376 -.00000254  00000-0 -13526-4 0  9995,2 56480  69.9987 123.0190 0002882 270.0469  90.0359 14.98334944 27506,6950.178,96.107,574.046,570.04,0.0
56480.0,STARLINK-6214,PAYLOAD,2023-11-04 20:43:50,14.98332966,0.0002882,69.9988,122.3458,269.821,90.2619,-2.1429e-05,-3.49e-06,0.0,0 STARLINK-6214,1 56480U 23064AJ  23308.86378433 -.00000349  00000-0 -21429-4 0  9996,2 56480  69.9988 122.3458 0002882 269.8210  90.2619 14.98332966 27543,6950.184,96.107,574.052,570.046,0.0
56480.0,STARLINK-6214,PAYLOAD,2023-11-05 11:09:02,14.98341618,0.0002927,69.9987,120.8306,270.5259,89.5565,-1.3114e-05,-2.5e-06,0.0,0 STARLINK-6214,1 56480U 23064AJ  23309.46461624 -.00000250  00000-0 -13114-4 0  9991,2 56480  69.9987 120.8306 0002927 270.5259  89.5565 14.98341618 27993,6950.157,96.106,574.056,569.988,0.0
56480.0,STARLINK-6214,PAYLOAD,2023-11-05 14:21:18,14.98341459,0.0002942,69.9987,120.494,269.6038,90.4784,-1.2552e-05,-2.43e-06,0.0,0 STARLINK-6214,1 56480U 23064AJ  23309.59813516 -.00000243  00000-0 -12552-4 0  9993,2 56480  69.9987 120.4940 0002942 269.6038  90.4784 14.98341459 27654,6950.157,96.106,574.067,569.978,0.0
56480.0,STARLINK-6214,PAYLOAD,2023-11-05 20:45:50,14.98343054,0.0002906,69.9984,119.8205,269.6786,90.404,8.0464e-06,3e-08,0.0,0 STARLINK-6214,1 56480U 23064AJ  23309.86517174  .00000003  00000-0  80464-5 0  9994,2 56480  69.9984 119.8205 0002906 269.6786  90.4040 14.98343054 27699,6950.153,96.106,574.037,569.998,0.0
56480.0,STARLINK-6214,PAYLOAD,2023-11-06 11:11:03,14.98335351,0.0002789,69.998,118.3056,274.058,86.0261,-3.3554e-06,-1.33e-06,0.0,0 STARLINK-6214,1 56480U 23064AJ  23310.46601386 -.00000133  00000-0 -33554-5 0  9995,2 56480  69.9980 118.3056 0002789 274.0580  86.0261 14.98335351 28142,6950.176,96.107,573.98,570.103,0.0
56480.0,STARLINK-6214,PAYLOAD,2023-11-06 14:23:19,14.98333526,0.0002995,69.9981,117.9689,271.8569,88.2247,2.2459e-05,1.75e-06,0.0,0 STARLINK-6214,1 56480U 23064AJ  23310.59953315  .00000175  00000-0  22459-4 0  9996,2 56480  69.9981 117.9689 0002995 271.8569  88.2247 14.98333526 27803,6950.182,96.107,574.129,569.965,0.0
56480.0,STARLINK-6214,PAYLOAD,2023-11-06 20:47:51,14.9833476,0.0002979,69.9982,117.2954,271.3385,88.7432,2.9648e-05,2.61e-06,0.0,0 STARLINK-6214,1 56480U 23064AJ  23310.86657132  .00000261  00000-0  29648-4 0  9997,2 56480  69.9982 117.2954 0002979 271.3385  88.7432 14.98334760 27841,6950.178,96.107,574.114,569.973,0.0
56480.0,STARLINK-6214,PAYLOAD,2023-11-07 11:13:05,14.98328202,0.000287,69.998,115.7809,271.4611,88.6219,-0.00011754,-1.495e-05,0.0,0 STARLINK-6214,1 56480U 23064AJ  23311.46741945 -.00001495  00000-0 -11754-3 0  9990,2 56480  69.9980 115.7809 0002870 271.4611  88.6219 14.98328202 28290,6950.198,96.107,574.058,570.069,0.0
56480.0,STARLINK-6214,PAYLOAD,2023-11-07 14:25:21,14.98326884,0.0002901,69.9981,115.4441,270.9983,89.0844,-0.00012066,-1.532e-05,0.0,0 STARLINK-6214,1 56480U 23064AJ  23311.60094022 -.00001532  00000-0 -12066-3 0  9992,2 56480  69.9981 115.4441 0002901 270.9983  89.0844 14.98326884 27956,6950.203,96.107,574.084,570.051,0.0
56480.0,STARLINK-6214,PAYLOAD,2023-11-08 11:15:05,14.98326051,0.0003145,69.9988,113.2564,271.7142,88.3657,-2.6905e-05,-4.14e-06,0.0,0 STARLINK-6214,1 56480U 23064AJ  23312.46881907 -.00000414  00000-0 -26905-4 0  9999,2 56480  69.9988 113.2564 0003145 271.7142  88.3657 14.98326051 28447,6950.205,96.107,574.256,569.884,0.0
56480.0,STARLINK-6214,PAYLOAD,2023-11-08 14:27:22,14.98327014,0.0003134,69.9986,112.9195,271.6142,88.4658,-1.6623e-05,-2.91e-06,0.0,0 STARLINK-6214,1 56480U 23064AJ  23312.60233848 -.00000291  00000-0 -16623-4 0  9999,2 56480  69.9986 112.9195 0003134 271.6142  88.4658 14.98327014 28103,6950.202,96.107,574.245,569.889,0.0
56480.0,STARLINK-6214,PAYLOAD,2023-11-08 20:51:54,14.98329839,0.0003038,69.9986,112.2461,268.2871,91.794,7.9372e-06,2e-08,0.0,0 STARLINK-6214,1 56480U 23064AJ  23312.86937611  .00000002  00000-0  79372-5 0  9995,2 56480  69.9986 112.2461 0003038 268.2871  91.7940 14.98329839 28148,6950.193,96.107,574.17,569.947,0.0
56480.0,STARLINK-6214,PAYLOAD,2023-11-09 11:17:06,14.98327716,0.0003212,69.9991,110.7323,276.5958,83.4835,7.2311e-05,7.7e-06,0.0,0 STARLINK-6214,1 56480U 23064AJ  23313.47021651  .00000770  00000-0  72311-4 0  9998,2 56480  69.9991 110.7323 0003212 276.5958  83.4835 14.98327716 28598,6950.2,96.107,574.297,569.833,0.0
56480.0,STARLINK-6214,PAYLOAD,2023-11-09 14:29:22,14.98326909,0.0003214,69.9989,110.3951,271.9327,88.1464,0.00012382,1.385e-05,0.0,0 STARLINK-6214,1 56480U 23064AJ  23313.60373522  .00001385  00000-0  12382-3 0  9994,2 56480  69.9989 110.3951 0003214 271.9327  88.1464 14.98326909 28255,6950.202,96.107,574.301,569.834,0.0
56480.0,STARLINK-6214,PAYLOAD,2023-11-09 19:17:46,14.98331871,0.0002954,69.9987,109.8896,262.7614,97.321,0.0001426,1.609e-05,0.0,0 STARLINK-6214,1 56480U 23064AJ  23313.80401161  .00001609  00000-0  14260-3 0  9993,2 56480  69.9987 109.8896 0002954 262.7614  97.3210 14.98331871 28649,6950.187,96.107,574.105,569.999,0.0
56480.0,STARLINK-6214,PAYLOAD,2023-11-09 20:53:54,14.98337817,0.0002924,69.9985,109.7207,265.2757,94.8068,6.5859e-05,6.93e-06,0.0,0 STARLINK-6214,1 56480U 23064AJ  23313.87076926  .00000693  00000-0  65859-4 0  9990,2 56480  69.9985 109.7207 0002924 265.2757  94.8068 14.98337817 28295,6950.169,96.106,574.066,570.001,0.0
56480.0,STARLINK-6214,PAYLOAD,2023-11-10 03:18:27,14.98327407,0.0003027,69.9994,109.0478,269.6148,90.4664,6.3949e-05,6.7e-06,0.0,0 STARLINK-6214,1 56480U 23064AJ  23314.13781644  .00000670  00000-0  63949-4 0  9993,2 56480  69.9994 109.0478 0003027 269.6148  90.4664 14.98327407 28697,6950.201,96.107,574.17,569.962,0.0
56480.0,STARLINK-6214,PAYLOAD,2023-11-10 14:31:24,14.98326192,0.0002892,70.0,107.8708,269.9172,90.1655,3.4858e-06,-5.1e-07,0.0,0 STARLINK-6214,1 56480U 23064AJ  23314.60514015 -.00000051  00000-0  34858-5 0  9993,2 56480  70.0000 107.8708 0002892 269.9172  90.1655 14.98326192 28405,6950.205,96.107,574.08,570.06,0.0
56480.0,STARLINK-6214,PAYLOAD,2023-11-10 19:19:48,14.98323827,0.0002706,69.9998,107.3656,261.2714,98.8139,-2.4428e-05,-3.84e-06,0.0,0 STARLINK-6214,1 56480U 23064AJ  23314.80542268 -.00000384  00000-0 -24428-4 0  9997,2 56480  69.9998 107.3656 0002706 261.2714  98.8139 14.98323827 28433,6950.212,96.107,573.958,570.196,0.0
56480.0,STARLINK-6214,PAYLOAD,2023-11-10 20:55:56,14.98323312,0.0002703,69.9997,107.1971,261.9925,98.0927,-3.3511e-05,-4.93e-06,0.0,0 STARLINK-6214,1 56480U 23064AJ  23314.87218337 -.00000493  00000-0 -33511-4 0  9995,2 56480  69.9997 107.1971 0002703 261.9925  98.0927 14.98323312 28805,6950.214,96.107,573.957,570.2,0.0
56480.0,STARLINK-6214,PAYLOAD,2023-11-11 11:21:08,14.98334083,0.000298,69.9992,105.6821,268.3628,91.719,2.0497e-05,1.52e-06,0.0,0 STARLINK-6214,1 56480U 23064AJ  23315.47301426  .00000152  00000-0  20497-4 0  9993,2 56480  69.9992 105.6821 0002980 268.3628  91.7190 14.98334083 28893,6950.18,96.107,574.116,569.974,0.0
56480.0,STARLINK-6214,PAYLOAD,2023-11-11 14:33:24,14.98334001,0.0002876,69.9995,105.3454,265.7014,94.3817,3.0282e-05,2.68e-06,0.0,0 STARLINK-6214,1 56480U 23064AJ  23315.60653364  .00000268  00000-0  30282-4 0  9990,2 56480  69.9995 105.3454 0002876 265.7014  94.3817 14.98334001 28557,6950.181,96.107,574.044,570.047,0.0
